LUCH-5V                 
1 39727U 14023A   26095.91136294 -.00000265  00000+0  00000+0 0  9997
2 39727   4.9562  70.4510 0002925 321.7923 224.7809  1.00270107 43634
NAVSTAR 70 (USA 251)    
1 39741U 14026A   26095.66718280 -.00000088  00000+0  00000+0 0  9992
2 39741  56.5313 334.3423 0039349 326.1202  33.6769  2.00566500 87086
COSMOS 2500 [GLONASS-M] 
1 40001U 14032A   26092.95821382 -.00000044  00000+0  00000+0 0  9999
2 40001  65.2756 316.2469 0005137 188.3777 171.6663  2.13105929 91851
NAVSTAR 71 (USA 256)    
1 40105U 14045A   26095.25809524  .00000002  00000+0  00000+0 0  9991
2 40105  55.3047  91.3685 0031400 119.7721 240.5476  2.00553703 84616
GSAT0201 (GALILEO 5)    
1 40128U 14050A   26094.57587155 -.00000043  00000+0  00000+0 0  9995
2 40128  48.9567 276.4486 1662760 176.5217 184.7885  1.85520165 76951
GSAT0202 (GALILEO 6)    
1 40129U 14050B   26091.59776485 -.00000055  00000+0  00000+0 0  9994
2 40129  48.9773 275.6550 1663302 177.1412 183.9310  1.85520784 79067
IRNSS-1C                
1 40269U 14061A   26095.88358310 -.00000158  00000+0  00000+0 0  9994
2 40269   6.3328  90.3152 0020865 356.3716 148.6231  1.00272924 41969
NAVSTAR 72 (USA 258)    
1 40294U 14068A   26095.13374736 -.00000083  00000+0  00000+0 0  9994
2 40294  56.9408  33.7696 0064300  68.3893 292.2824  2.00571865 83742
COSMOS 2501 [GLONASS-K] 
1 40315U 14075A   26084.30325579  .00000001  00000+0  00000+0 0  9993
2 40315  63.6158 193.2737 0021182 207.3153 152.5805  2.13101287 88064
NAVSTAR 73 (USA 260)    
1 40534U 15013A   26095.76537834  .00000006  00000+0  00000+0 0  9995
2 40534  53.1789 207.1723 0108822  39.9432 320.8559  2.00555754 80377
GSAT0203 (GALILEO 7)    
1 40544U 15017A   26094.30331323 -.00000095  00000+0  00000+0 0  9993
2 40544  56.8108 343.6116 0004485 297.4041  62.5970  1.70475988 67943
GSAT0204 (GALILEO 8)    
1 40545U 15017B   26093.97240100 -.00000096  00000+0  00000+0 0  9999
2 40545  56.8167 343.6389 0003117 291.5044  68.5090  1.70475693 30986
BEIDOU-3S IGSO-1S       
1 40549U 15019A   26082.29086919 -.00000163  00000+0  00000+0 0  9999
2 40549  49.3559 296.4949 0036261 190.1236 255.1180  1.00268843 40213
NAVSTAR 74 (USA 262)    
1 40730U 15033A   26095.42667885 -.00000014  00000+0  00000+0 0  9998
2 40730  54.0409 270.0842 0114939  29.5944 331.0235  2.00560101 78536
BEIDOU-3S M2S           
1 40748U 15037A   26095.29821012 -.00000058  00000+0  00000+0 0  9998
2 40748  54.9349 304.5553 0007711 276.2340  83.6991  1.86232104 72769
BEIDOU-3S M1S           
1 40749U 15037B   26093.90388687 -.00000063  00000+0  00000+0 0  9997
2 40749  54.9325 304.5916 0004693  43.1589 316.9018  1.86254958 72740
GSAT0205 (GALILEO 9)    
1 40889U 15045A   26094.72644198 -.00000006  00000+0  00000+0 0  9991
2 40889  54.9704 223.7301 0004155 270.0505  89.8604  1.67410833 65731
